$$SOE
2459580.500000000, A.D. 2022-Jan-01 00:00:00.0000, -2.001659762271546E+08, 2.479869927593648E+08, -6.897299367266253E+06,
2459587.500000000, A.D. 2022-Jan-08 00:00:00.0000, -2.107536197179183E+08, 2.411766434309090E+08, -7.744057513447896E+06,
2459594.500000000, A.D. 2022-Jan-15 00:00:00.0000, -2.210302593936467E+08, 2.340102744165303E+08, -8.579386913460255E+06,
2459601.500000000, A.D. 2022-Jan-22 00:00:00.0000, -2.309856416253204E+08, 2.265036713795185E+08, -9.402245798428655E+06,
2459608.500000000, A.D. 2022-Jan-29 00:00:00.0000, -2.406103602151053E+08, 2.186727223597800E+08, -1.021164450744095E+07,
2459615.500000000, A.D. 2022-Feb-05 00:00:00.0000, -2.498958344838717E+08, 2.105333725081185E+08, -1.100664487284765E+07,
2459622.500000000, A.D. 2022-Feb-12 00:00:00.0000, -2.588342835233681E+08, 2.021015813486558E+08, -1.178635969560502E+07,
2459629.500000000, A.D. 2022-Feb-19 00:00:00.0000, -2.674186983069085E+08, 1.933932848377456E+08, -1.254995201838060E+07,
2459636.500000000, A.D. 2022-Feb-26 00:00:00.0000, -2.756428133192413E+08, 1.844243613927565E+08, -1.329663416106525E+07,
2459643.500000000, A.D. 2022-Mar-05 00:00:00.0000, -2.835010778554280E+08, 1.752106011561815E+08, -1.402566660838607E+07,
2459650.500000000, A.D. 2022-Mar-12 00:00:00.0000, -2.909886270394688E+08, 1.657676782937866E+08, -1.473635679775020E+07,
2459657.500000000, A.D. 2022-Mar-19 00:00:00.0000, -2.981012527313795E+08, 1.561111262056683E+08, -1.542805783182064E+07,
2459664.500000000, A.D. 2022-Mar-26 00:00:00.0000, -3.048353745093308E+08, 1.462563154849371E+08, -1.610016713650778E+07,
2459671.500000000, A.D. 2022-Apr-02 00:00:00.0000, -3.111880108397415E+08, 1.362184344018051E+08, -1.675212509130397E+07,
2459678.500000000, A.D. 2022-Apr-09 00:00:00.0000, -3.171567503180940E+08, 1.260124717474657E+08, -1.738341367079853E+07,
2459685.500000000, A.D. 2022-Apr-16 00:00:00.0000, -3.227397227546383E+08, 1.156532025198758E+08, -1.799355508923278E+07,
2459692.500000000, A.D. 2022-Apr-23 00:00:00.0000, -3.279355714852079E+08, 1.051551773643019E+08, -1.858211025430820E+07,
2459699.500000000, A.D. 2022-Apr-30 00:00:00.0000, -3.327434288737340E+08, 9.453271335677205E+07, -1.914867705285647E+07,
2459706.500000000, A.D. 2022-May-07 00:00:00.0000, -3.371628920212663E+08, 8.379988399963124E+07, -1.969288891986909E+07,
2459713.500000000, A.D. 2022-May-14 00:00:00.0000, -3.411939973445047E+08, 7.297051131323974E+07, -2.021441357622062E+07,
2459720.500000000, A.D. 2022-May-21 00:00:00.0000, -3.448371960967286E+08, 6.205816062876447E+07, -2.071295169237716E+07,
2459727.500000000, A.D. 2022-May-28 00:00:00.0000, -3.480933313474878E+08, 5.107613698046985E+07, -2.118823551896087E+07,
2459734.500000000, A.D. 2022-Jun-04 00:00:00.0000, -3.509636161683338E+08, 4.003748265349938E+07, -2.164002754033527E+07,
2459741.500000000, A.D. 2022-Jun-11 00:00:00.0000, -3.534496128912574E+08, 2.895497576491915E+07, -2.206811916791718E+07,
2459748.500000000, A.D. 2022-Jun-18 00:00:00.0000, -3.555532134038677E+08, 1.784112977347529E+07, -2.247232947848924E+07,
2459755.500000000, A.D. 2022-Jun-25 00:00:00.0000, -3.572766204480084E+08, 6.708193774676779E+06, -2.285250400519189E+07,
2459762.500000000, A.D. 2022-Jul-02 00:00:00.0000, -3.586223297780834E+08, -4.431846586912084E+06, -2.320851360058687E+07,
2459769.500000000, A.D. 2022-Jul-09 00:00:00.0000, -3.595931127738228E+08, -1.556726750595972E+07, -2.354025339427891E+07,
2459776.500000000, A.D. 2022-Jul-16 00:00:00.0000, -3.601919995427725E+08, -2.668660371023143E+07, -2.384764175212816E+07,
2459783.500000000, A.D. 2022-Jul-23 00:00:00.0000, -3.604222646879373E+08, -3.777864346443716E+07, -2.413061902939839E+07,
2459790.500000000, A.D. 2022-Jul-30 00:00:00.0000, -3.602874156344085E+08, -4.883242531402856E+07, -2.438914640029711E+07,
2459797.500000000, A.D. 2022-Aug-06 00:00:00.0000, -3.597911798926303E+08, -5.983723598753820E+07, -2.462320504118424E+07,
2459804.500000000, A.D. 2022-Aug-13 00:00:00.0000, -3.589374920501124E+08, -7.078260676255129E+07, -2.483279536542257E+07,
2459811.500000000, A.D. 2022-Aug-20 00:00:00.0000, -3.577304820267897E+08, -8.165830885672720E+07, -2.501793620553246E+07,
2459818.500000000, A.D. 2022-Aug-27 00:00:00.0000, -3.561744644959458E+08, -9.245434862535824E+07, -2.517866400778760E+07,
2459825.500000000, A.D. 2022-Sep-03 00:00:00.0000, -3.542739291948451E+08, -1.031609627241693E+08, -2.531503207065412E+07,
2459832.500000000, A.D. 2022-Sep-10 00:00:00.0000, -3.520335320055727E+08, -1.137686132559218E+08, -2.542710983248398E+07,
2459839.500000000, A.D. 2022-Sep-17 00:00:00.0000, -3.494580867463189E+08, -1.242679829414562E+08, -2.551498221022478E+07,
2459846.500000000, A.D. 2022-Sep-24 00:00:00.0000, -3.465525575829554E+08, -1.346499704018413E+08, -2.557874899789882E+07,
2459853.500000000, A.D. 2022-Oct-01 00:00:00.0000, -3.433220517924532E+08, -1.449056856062657E+08, -2.561852434789970E+07,
2459860.500000000, A.D. 2022-Oct-08 00:00:00.0000, -3.397718124433200E+08, -1.550264449918637E+08, -2.563443632897553E+07,
2459867.500000000, A.D. 2022-Oct-15 00:00:00.0000, -3.359072118969355E+08, -1.650037650801204E+08, -2.562662637627169E+07,
2459874.500000000, A.D. 2022-Oct-22 00:00:00.0000, -3.317337482823853E+08, -1.748293562945991E+08, -2.559524856944742E+07,
2459881.500000000, A.D. 2022-Oct-29 00:00:00.0000, -3.272570424187205E+08, -1.844951195932139E+08, -2.554046917838138E+07,
2459888.500000000, A.D. 2022-Nov-05 00:00:00.0000, -3.224828330571572E+08, -1.939931431921355E+08, -2.546246644324125E+07,
2459895.500000000, A.D. 2022-Nov-12 00:00:00.0000, -3.174169723791321E+08, -2.033156981321452E+08, -2.536143030349965E+07,
2459902.500000000, A.D. 2022-Nov-19 00:00:00.0000, -3.120654224439766E+08, -2.124552336612319E+08, -2.523756208737683E+07,
2459909.500000000, A.D. 2022-Nov-26 00:00:00.0000, -3.064342523045765E+08, -2.214043728501967E+08, -2.509107421876721E+07,
2459916.500000000, A.D. 2022-Dec-03 00:00:00.0000, -3.005296356096424E+08, -2.301559084684667E+08, -2.492218995822766E+07,
2459923.500000000, A.D. 2022-Dec-10 00:00:00.0000, -2.943578486313574E+08, -2.387027991126158E+08, -2.473114318012112E+07,
2459930.500000000, A.D. 2022-Dec-17 00:00:00.0000, -2.879252686757259E+08, -2.470381656215299E+08, -2.451817818893309E+07,
2459937.500000000, A.D. 2022-Dec-24 00:00:00.0000, -2.812383727471708E+08, -2.551552878527828E+08, -2.428354958872463E+07,
2459944.500000000, A.D. 2022-Dec-31 00:00:00.0000, -2.743037360910840E+08, -2.630476017216633E+08, -2.402752222841343E+07,
2459951.500000000, A.D. 2023-Jan-07 00:00:00.0000, -2.671280304738062E+08, -2.707086955490991E+08, -2.375037115428378E+07,
2459958.500000000, A.D. 2023-Jan-14 00:00:00.0000, -2.597180241494380E+08, -2.781323052297125E+08, -2.345238134757869E+07,
2459965.500000000, A.D. 2023-Jan-21 00:00:00.0000, -2.520805841413204E+08, -2.853123114017997E+08, -2.313384744654658E+07,
2459972.500000000, A.D. 2023-Jan-28 00:00:00.0000, -2.442226771563548E+08, -2.922427388256757E+08, -2.279507380496593E+07,
2459979.500000000, A.D. 2023-Feb-04 00:00:00.0000, -2.361513693287887E+08, -2.989177549521900E+08, -2.243637461993457E+07,
2459986.500000000, A.D. 2023-Feb-11 00:00:00.0000, -2.278738265759251E+08, -3.053316678821720E+08, -2.205807397903386E+07,
2459993.500000000, A.D. 2023-Feb-18 00:00:00.0000, -2.193973156151237E+08, -3.114789245465716E+08, -2.166050588727443E+07,
2460000.500000000, A.D. 2023-Feb-25 00:00:00.0000, -2.107292053649898E+08, -3.173541092768694E+08, -2.124401431036359E+07,
2460007.500000000, A.D. 2023-Mar-04 00:00:00.0000, -2.018769686152444E+08, -3.229519427566158E+08, -2.080895324164969E+07,
2460014.500000000, A.D. 2023-Mar-11 00:00:00.0000, -1.928481839249315E+08, -3.282672813640149E+08, -2.035568679483594E+07,
2460021.500000000, A.D. 2023-Mar-18 00:00:00.0000, -1.836505376907822E+08, -3.332951169650358E+08, -1.988458933013092E+07,
2460028.500000000, A.D. 2023-Mar-25 00:00:00.0000, -1.742918261709569E+08, -3.380305772140456E+08, -1.939604563553016E+07,
2460035.500000000, A.D. 2023-Apr-01 00:00:00.0000, -1.647799570278148E+08, -3.424689259786575E+08, -1.889045116920018E+07,
2460042.500000000, A.D. 2023-Apr-08 00:00:00.0000, -1.551229509929074E+08, -3.466055626739252E+08, -1.836821220558760E+07,
2460049.500000000, A.D. 2023-Apr-15 00:00:00.0000, -1.453289459778320E+08, -3.504360216220122E+08, -1.782974576053727E+07,
2460056.500000000, A.D. 2023-Apr-22 00:00:00.0000, -1.354062018075167E+08, -3.539559745015191E+08, -1.727547971035843E+07,
2460063.500000000, A.D. 2023-Apr-29 00:00:00.0000, -1.253631028278660E+08, -3.571612336489395E+08, -1.670585317134421E+07,
2460070.500000000, A.D. 2023-May-06 00:00:00.0000, -1.152081601355805E+08, -3.600477544463034E+08, -1.612131683227248E+07,
2460077.500000000, A.D. 2023-May-13 00:00:00.0000, -1.049500143936206E+08, -3.626116377028118E+08, -1.552233322273551E+07,
2460084.500000000, A.D. 2023-May-20 00:00:00.0000, -9.459743898380663E+07, -3.648491325355800E+08, -1.490937697833945E+07,
2460091.500000000, A.D. 2023-May-27 00:00:00.0000, -8.415934328722976E+07, -3.667566397929897E+08, -1.428293512244345E+07,
2460098.500000000, A.D. 2023-Jun-03 00:00:00.0000, -7.364477601725362E+07, -3.683307160097380E+08, -1.364350736722837E+07,
2460105.500000000, A.D. 2023-Jun-10 00:00:00.0000, -6.306292856251765E+07, -3.695680779240910E+08, -1.299160643697448E+07,
2460112.500000000, A.D. 2023-Jun-17 00:00:00.0000, -5.242313823118465E+07, -3.704656076351004E+08, -1.232775842590696E+07,
2460119.500000000, A.D. 2023-Jun-24 00:00:00.0000, -4.173489105509606E+07, -3.710203583620880E+08, -1.165250321441148E+07,
2460126.500000000, A.D. 2023-Jul-01 00:00:00.0000, -3.100782387753595E+07, -3.712295599966566E+08, -1.096639489795393E+07,
2460133.500000000, A.D. 2023-Jul-08 00:00:00.0000, -2.025172737406190E+07, -3.710906236427273E+08, -1.027000200658117E+07,
2460140.500000000, A.D. 2023-Jul-15 00:00:00.0000, -9.476551255984750E+06, -3.706011479895278E+08, -9.563907627703920E+06,
$$EOE